QIANFAN-81              
1 63167U 25046J   26008.15165662  .00000196  00000+0  28470-3 0  9997
2 63167  88.9788 317.1410 0016558  47.8852 312.3703 13.51013060 51059
QIANFAN-82              
1 63168U 25046K   26008.11217470  .00000219  00000+0  32092-3 0  9990
2 63168  88.9788 317.1891 0014797  55.2838 304.9704 13.50986029 51032
QIANFAN-83              
1 63169U 25046L   26008.14688516  .00000261  00000+0  32273-3 0  9995
2 63169  88.9788 316.9101 0015843  40.8722 319.3620 13.61986886 51196
QIANFAN-84              
1 63170U 25046M   26008.13977382  .00000194  00000+0  28141-3 0  9992
2 63170  88.9787 317.3188 0017711  51.6269 308.6470 13.50995858 50964
QIANFAN-85              
1 63171U 25046N   26008.13672192 -.00000186  00000+0 -30749-3 0  9994
2 63171  88.9783 317.1910 0015099  53.9944 306.2604 13.50985071 51032
QIANFAN-86              
1 63172U 25046P   26008.14505592  .00000222  00000+0  32448-3 0  9992
2 63172  88.9790 317.0527 0013062  58.2203 302.0219 13.50986698 51119
QIANFAN-87              
1 63173U 25046Q   26008.19049313  .00000236  00000+0  34606-3 0  9995
2 63173  88.9786 317.1587 0013663  53.9318 306.3096 13.50984411 51052
QIANFAN-88              
1 63174U 25046R   26008.13263495  .00000215  00000+0  31446-3 0  9995
2 63174  88.9789 317.1198 0014139  60.8920 299.3645 13.50990644 51077
